XRISM                   
1 57800U 23137A   24067.31741093  .00005220  00000+0  40487-3 0  9997
2 57800  31.0035 300.3809 0010258 280.8087  79.1394 14.99838398 27291
